{
    "links": {
        "self": "http://www.neowsapp.com/rest/v1/neo/54017111?api_key=iIulBulltgU6a56xZRHN4H3l9WmuAYTsLGpBGhQ2"
    },
    "id": "54017111",
    "neo_reference_id": "54017111",
    "name": "(2020 JC3)",
    "designation": "2020 JC3",
    "nasa_jpl_url": "http://ssd.jpl.nasa.gov/sbdb.cgi?sstr=54017111",
    "absolute_magnitude_h": 21.635,
    "estimated_diameter": {
        "kilometers": {
            "estimated_diameter_min": 0.1251857734,
            "estimated_diameter_max": 0.279923899
        },
        "meters": {
            "estimated_diameter_min": 125.1857733563,
            "estimated_diameter_max": 279.9238990406
        },
        "miles": {
            "estimated_diameter_min": 0.0777868092,
            "estimated_diameter_max": 0.1739365931
        },
        "feet": {
            "estimated_diameter_min": 410.7144926583,
            "estimated_diameter_max": 918.3855249283
        }
    },
    "is_potentially_hazardous_asteroid": true,
    "close_approach_data": [
        {
            "close_approach_date": "2020-04-11",
            "close_approach_date_full": "2020-Apr-11 02:50",
            "epoch_date_close_approach": 1586573400000,
            "relative_velocity": {
                "kilometers_per_second": "14.9191712438",
                "kilometers_per_hour": "53709.0164775889",
                "miles_per_hour": "33372.6941551996"
            },
            "miss_distance": {
                "astronomical": "0.0827662084",
                "lunar": "32.1960550676",
                "kilometers": "12381648.484616108",
                "miles": "7693599.6113859704"
            },
            "orbiting_body": "Earth"
        },
        {
            "close_approach_date": "2021-08-29",
            "close_approach_date_full": "2021-Aug-29 06:11",
            "epoch_date_close_approach": 1630217460000,
            "relative_velocity": {
                "kilometers_per_second": "8.7662670128",
                "kilometers_per_hour": "31558.5612459266",
                "miles_per_hour": "19609.262680837"
            },
            "miss_distance": {
                "astronomical": "1.7293215288",
                "lunar": "672.7060747032",
                "kilometers": "258702817.253623656",
                "miles": "160750476.5427562128"
            },
            "orbiting_body": "Juptr"
        },
        {
            "close_approach_date": "2023-12-04",
            "close_approach_date_full": "2023-Dec-04 15:53",
            "epoch_date_close_approach": 1701705180000,
            "relative_velocity": {
                "kilometers_per_second": "20.687958145",
                "kilometers_per_hour": "74476.6493220727",
                "miles_per_hour": "46276.8935745957"
            },
            "miss_distance": {
                "astronomical": "0.1789773036",
                "lunar": "69.6221711004",
                "kilometers": "26774623.396903332",
                "miles": "16636979.5118447016"
            },
            "orbiting_body": "Earth"
        },
        {
            "close_approach_date": "2033-06-08",
            "close_approach_date_full": "2033-Jun-08 00:32",
            "epoch_date_close_approach": 2001803520000,
            "relative_velocity": {
                "kilometers_per_second": "6.825644746",
                "kilometers_per_hour": "24572.3210857452",
                "miles_per_hour": "15268.2847324176"
            },
            "miss_distance": {
                "astronomical": "1.313275948",
                "lunar": "510.864343772",
                "kilometers": "196463284.54303076",
                "miles": "122076624.246754088"
            },
            "orbiting_body": "Juptr"
        },
        {
            "close_approach_date": "2045-04-13",
            "close_approach_date_full": "2045-Apr-13 10:02",
            "epoch_date_close_approach": 2375690520000,
            "relative_velocity": {
                "kilometers_per_second": "5.8730752312",
                "kilometers_per_hour": "21143.0708323288",
                "miles_per_hour": "13137.4819846767"
            },
            "miss_distance": {
                "astronomical": "1.1393347708",
                "lunar": "443.2012258412",
                "kilometers": "170442054.928618196",
                "miles": "105907781.9235392648"
            },
            "orbiting_body": "Juptr"
        }
    ],
    "orbital_data": {
        "orbit_id": "4",
        "orbit_determination_date": "2020-06-01 05:59:43",
        "first_observation_date": "2020-05-15",
        "last_observation_date": "2020-05-31",
        "data_arc_in_days": 16,
        "observations_used": 31,
        "orbit_uncertainty": "7",
        "minimum_orbit_intersection": ".00147346",
        "jupiter_tisserand_invariant": "3.126",
        "epoch_osculation": "2459000.5",
        "eccentricity": ".6779684009484639",
        "semi_major_axis": "2.453636911168288",
        "inclination": "5.274005666818685",
        "ascending_node_longitude": "261.4684014352025",
        "orbital_period": "1403.827906162637",
        "perihelion_distance": ".7901486179953956",
        "perihelion_argument": "240.1553054852641",
        "aphelion_distance": "4.11712520434118",
        "perihelion_time": "2458910.939358584640",
        "mean_anomaly": "22.96708219575346",
        "mean_motion": ".256441689483193",
        "equinox": "J2000",
        "orbit_class": {
            "orbit_class_type": "APO",
            "orbit_class_description": "Near-Earth asteroid orbits which cross the Earth’s orbit similar to that of 1862 Apollo",
            "orbit_class_range": "a (semi-major axis) > 1.0 AU; q (perihelion) < 1.017 AU"
        }
    },
    "is_sentry_object": false
}